[{"OBJECT_NAME":"ORBCOMM FM32","OBJECT_ID":"1999-065C","EPOCH":"2026-03-09T01:02:29.080032","MEAN_MOTION":14.3696516,"ECCENTRICITY":0.00057226,"INCLINATION":45.0154,"RA_OF_ASC_NODE":287.2018,"ARG_OF_PERICENTER":281.4865,"MEAN_ANOMALY":78.534,"EPHEMERIS_TYPE":0,"CLASSIFICATION_TYPE":"U","NORAD_CAT_ID":25982,"ELEMENT_SET_NO":999,"REV_AT_EPOCH":37268,"BSTAR":0.00040930249,"MEAN_MOTION_DOT":1.082e-5,"MEAN_MOTION_DDOT":0},{"OBJECT_NAME":"COSMOS 2251 DEB","OBJECT_ID":"1993-036ANN","EPOCH":"2026-03-06T21:01:41.641824","MEAN_MOTION":14.44120579,"ECCENTRICITY":0.00479545,"INCLINATION":74.022,"RA_OF_ASC_NODE":137.99,"ARG_OF_PERICENTER":221.6019,"MEAN_ANOMALY":138.1486,"EPHEMERIS_TYPE":0,"CLASSIFICATION_TYPE":"U","NORAD_CAT_ID":35647,"ELEMENT_SET_NO":999,"REV_AT_EPOCH":68878,"BSTAR":0.00071009132,"MEAN_MOTION_DOT":2.441e-5,"MEAN_MOTION_DDOT":0}]
